NORAD_CAT_ID,OBJECT_NAME,OBJECT_TYPE,EPOCH,MEAN_MOTION,ECCENTRICITY,INCLINATION,RA_OF_ASC_NODE,ARG_OF_PERICENTER,MEAN_ANOMALY,BSTAR,MEAN_MOTION_DOT,MEAN_MOTION_DDOT,TLE_LINE0,TLE_LINE1,TLE_LINE2,SEMIMAJOR_AXIS,PERIOD,APOGEE,PERIGEE,DECAYED
49761.0,STARLINK-3203,PAYLOAD,2023-10-21 13:28:06,15.0884206,0.0001965,53.2141,85.2757,88.4654,271.6563,7.7221e-05,9.41e-06,0.0,0 STARLINK-3203,1 49761U 21115AP  23294.56118097  .00000941  00000-0  77221-4 0  9991,2 49761  53.2141  85.2757 0001965  88.4654 271.6563 15.08842060104318,6917.874,95.437,541.098,538.38,0.0
49761.0,STARLINK-3203,PAYLOAD,2023-10-21 19:49:37,15.08856591,0.0001517,53.2149,84.0853,96.8044,263.3121,0.00011334,1.517e-05,0.0,0 STARLINK-3203,1 49761U 21115AP  23294.82613134  .00001517  00000-0  11334-3 0  9994,2 49761  53.2149  84.0853 0001517  96.8044 263.3121 15.08856591105468,6917.83,95.437,540.744,538.645,0.0
49761.0,STARLINK-3203,PAYLOAD,2023-10-22 13:18:53,15.08833899,0.0002309,53.2144,80.8135,112.2077,247.916,2.9479e-05,1.81e-06,0.0,0 STARLINK-3203,1 49761U 21115AP  23295.55478555  .00000181  00000-0  29479-4 0  9997,2 49761  53.2144  80.8135 0002309 112.2077 247.9160 15.08833899104465,6917.899,95.438,541.361,538.167,0.0
49761.0,STARLINK-3203,PAYLOAD,2023-10-22 16:29:40,15.08830585,0.0001354,53.2155,80.221,82.0542,278.0604,5.5803e-05,6e-06,0.0,0 STARLINK-3203,1 49761U 21115AP  23295.68726910  .00000600  00000-0  55803-4 0  9998,2 49761  53.2155  80.2210 0001354  82.0542 278.0604 15.08830585105597,6917.909,95.438,540.711,538.837,0.0
49761.0,STARLINK-3203,PAYLOAD,2023-10-24 01:52:45,15.08841696,0.0001475,53.2165,73.9751,69.7948,290.3202,0.00022938,3.365e-05,0.0,0 STARLINK-3203,1 49761U 21115AP  23297.07830640  .00003365  00000-0  22938-3 0  9992,2 49761  53.2165  73.9751 0001475  69.7948 290.3202 15.08841696105803,6917.875,95.437,540.761,538.72,0.0
49761.0,STARLINK-3203,PAYLOAD,2023-10-24 09:49:41,15.08834252,0.0001533,53.2162,72.4888,71.0348,289.081,6.0969e-05,6.82e-06,0.0,0 STARLINK-3203,1 49761U 21115AP  23297.40951053  .00000682  00000-0  60969-4 0  9997,2 49761  53.2162  72.4888 0001533  71.0348 289.0810 15.08834252105855,6917.898,95.438,540.823,538.702,0.0
49761.0,STARLINK-3203,PAYLOAD,2023-10-25 14:26:38,15.08817414,0.0001461,53.2165,67.1368,80.3631,279.7526,0.00038451,5.833e-05,0.0,0 STARLINK-3203,1 49761U 21115AP  23298.60183037  .00005833  00000-0  38451-3 0  9992,2 49761  53.2165  67.1368 0001461  80.3631 279.7526 15.08817414106032,6917.949,95.439,540.825,538.804,0.0
49761.0,STARLINK-3203,PAYLOAD,2023-10-26 12:42:02,15.08836016,0.0001239,53.2174,62.9744,81.4959,278.6174,0.00014412,2.006e-05,0.0,0 STARLINK-3203,1 49761U 21115AP  23299.52919371  .00002006  00000-0  14412-3 0  9992,2 49761  53.2174  62.9744 0001239  81.4959 278.6174 15.08836016106172,6917.893,95.438,540.615,538.9,0.0
49761.0,STARLINK-3203,PAYLOAD,2023-10-26 14:17:25,15.08839277,0.0001853,53.2177,62.6773,85.1515,274.9689,0.00013872,1.92e-05,0.0,0 STARLINK-3203,1 49761U 21115AP  23299.59543311  .00001920  00000-0  13872-3 0  9999,2 49761  53.2177  62.6773 0001853  85.1515 274.9689 15.08839277105075,6917.883,95.438,541.029,538.466,0.0
49761.0,STARLINK-3203,PAYLOAD,2023-10-26 15:52:48,15.08841119,0.0001893,53.2179,62.38,84.1963,275.9245,0.00015758,2.221e-05,0.0,0 STARLINK-3203,1 49761U 21115AP  23299.66167199  .00002221  00000-0  15758-3 0  9993,2 49761  53.2179  62.3800 0001893  84.1963 275.9245 15.08841119105083,6917.877,95.437,541.052,538.432,0.0
49761.0,STARLINK-3203,PAYLOAD,2023-10-27 01:25:06,15.0884367,0.0001389,53.2173,60.5957,87.3699,272.7452,0.00017941,2.569e-05,0.0,0 STARLINK-3203,1 49761U 21115AP  23300.05910832  .00002569  00000-0  17941-3 0  9990,2 49761  53.2173  60.5957 0001389  87.3699 272.7452 15.08843670106250,6917.869,95.437,540.695,538.773,0.0
49761.0,STARLINK-3203,PAYLOAD,2023-10-27 14:08:11,15.08853387,0.0001398,53.2169,58.2171,87.4748,272.6404,0.00026374,3.913e-05,0.0,0 STARLINK-3203,1 49761U 21115AP  23300.58902250  .00003913  00000-0  26374-3 0  9997,2 49761  53.2169  58.2171 0001398  87.4748 272.6404 15.08853387105221,6917.839,95.437,540.672,538.737,0.0
49761.0,STARLINK-3203,PAYLOAD,2023-10-28 12:23:36,15.08833238,0.0001944,53.2168,54.0527,83.5057,276.6157,-6.5321e-05,-1.327e-05,0.0,0 STARLINK-3203,1 49761U 21115AP  23301.51639396 -.00001327  00000-0 -65321-4 0  9994,2 49761  53.2168  54.0527 0001944  83.5057 276.6157 15.08833238106476,6917.901,95.438,541.111,538.421,0.0
49761.0,STARLINK-3203,PAYLOAD,2023-10-28 13:58:59,15.08834229,0.0001771,53.2158,53.7543,89.8364,270.2831,-4.5675e-05,-1.015e-05,0.0,0 STARLINK-3203,1 49761U 21115AP  23301.58263293 -.00001015  00000-0 -45675-4 0  9994,2 49761  53.2158  53.7543 0001771  89.8364 270.2831 15.08834229105375,6917.898,95.438,540.988,538.538,0.0
49761.0,STARLINK-3203,PAYLOAD,2023-10-29 12:14:22,15.08859561,0.0001711,53.2185,49.5938,81.6389,278.4797,0.00047489,7.282e-05,0.0,0 STARLINK-3203,1 49761U 21115AP  23302.50998467  .00007282  00000-0  47489-3 0  9999,2 49761  53.2185  49.5938 0001711  81.6389 278.4797 15.08859561106623,6917.821,95.436,540.869,538.502,0.0
49761.0,STARLINK-3203,PAYLOAD,2023-10-29 13:49:45,15.08864031,0.0001618,53.2179,49.2951,80.0194,280.0981,0.0010233,0.00016046,0.0,0 STARLINK-3203,1 49761U 21115AP  23302.57622617  .00016046  00000-0  10233-2 0  9991,2 49761  53.2179  49.2951 0001618  80.0194 280.0981 15.08864031105521,6917.807,95.436,540.791,538.553,0.0
49761.0,STARLINK-3203,PAYLOAD,2023-10-29 17:00:31,15.08877693,0.0001631,53.2177,48.7002,77.4943,282.6231,0.0013547,0.0002136,0.0,0 STARLINK-3203,1 49761U 21115AP  23302.70870265  .00021360  00000-0  13547-2 0  9996,2 49761  53.2177  48.7002 0001631  77.4943 282.6231 15.08877693105543,6917.765,95.435,540.758,538.502,0.0
49761.0,STARLINK-3203,PAYLOAD,2023-10-30 12:05:10,15.08836284,0.000134,53.218,45.133,85.0695,275.045,0.00097245,0.00015221,0.0,0 STARLINK-3203,1 49761U 21115AP  23303.50358995  .00015221  00000-0  97245-3 0  9993,2 49761  53.2180  45.1330 0001340  85.0695 275.0450 15.08836284106774,6917.892,95.438,540.684,538.83,0.0
49761.0,STARLINK-3203,PAYLOAD,2023-10-30 13:40:33,15.08833628,0.0001403,53.2182,44.8356,82.3546,277.7605,0.00094258,0.00014742,0.0,0 STARLINK-3203,1 49761U 21115AP  23303.56983095  .00014742  00000-0  94258-3 0  9992,2 49761  53.2182  44.8356 0001403  82.3546 277.7605 15.08833628105673,6917.9,95.438,540.735,538.794,0.0
49761.0,STARLINK-3203,PAYLOAD,2023-10-31 13:31:23,15.08840954,0.0001325,53.2181,40.3747,75.4227,284.6912,0.0023539,0.00037374,0.0,0 STARLINK-3203,1 49761U 21115AP  23304.56346188  .00037374  00000-0  23539-2 0  9998,2 49761  53.2181  40.3747 0001325  75.4227 284.6912 15.08840954106937,6917.877,95.437,540.659,538.826,0.0
49761.0,STARLINK-3203,PAYLOAD,2023-10-31 16:42:09,15.08852437,0.000129,53.218,39.7808,73.7529,286.3605,0.0020456,0.00032429,0.0,0 STARLINK-3203,1 49761U 21115AP  23304.69593905  .00032429  00000-0  20456-2 0  9994,2 49761  53.2180  39.7808 0001290  73.7529 286.3605 15.08852437105849,6917.842,95.437,540.6,538.815,0.0
49761.0,STARLINK-3203,PAYLOAD,2023-11-01 13:22:08,15.0889002,0.0001403,53.2173,35.916,87.1539,272.9614,0.0012658,0.00019942,0.0,0 STARLINK-3203,1 49761U 21115AP  23305.55703838  .00019942  00000-0  12658-2 0  9998,2 49761  53.2173  35.9160 0001403  87.1539 272.9614 15.08890020107085,6917.728,95.434,540.563,538.622,0.0
49761.0,STARLINK-3203,PAYLOAD,2023-11-02 05:15:59,15.08855741,0.0002556,53.2173,32.9417,70.7921,289.3347,-0.00013635,-2.459e-05,0.0,0 STARLINK-3203,1 49761U 21115AP  23306.21943681 -.00002459  00000-0 -13635-3 0  9998,2 49761  53.2173  32.9417 0002556  70.7921 289.3347 15.08855741107187,6917.832,95.437,541.465,537.929,0.0
49761.0,STARLINK-3203,PAYLOAD,2023-11-02 13:12:54,15.08846231,0.0001621,53.2173,31.4558,66.8942,293.2221,7.7562e-05,9.47e-06,0.0,0 STARLINK-3203,1 49761U 21115AP  23306.55063593  .00000947  00000-0  77562-4 0  9998,2 49761  53.2173  31.4558 0001621  66.8942 293.2221 15.08846231106120,6917.861,95.437,540.848,538.605,0.0
49761.0,STARLINK-3203,PAYLOAD,2023-11-02 22:45:14,15.08834864,0.0001809,53.2182,29.6724,70.9613,289.1575,0.00069799,0.00010836,0.0,0 STARLINK-3203,1 49761U 21115AP  23306.94808205  .00010836  00000-0  69799-3 0  9998,2 49761  53.2182  29.6724 0001809  70.9613 289.1575 15.08834864107297,6917.896,95.438,541.013,538.51,0.0
49761.0,STARLINK-3203,PAYLOAD,2023-11-03 13:03:42,15.08850164,0.0001787,53.2179,26.9966,70.6199,289.4986,0.00082989,0.00012948,0.0,0 STARLINK-3203,1 49761U 21115AP  23307.54424095  .00012948  00000-0  82989-3 0  9998,2 49761  53.2179  26.9966 0001787  70.6199 289.4986 15.08850164106279,6917.849,95.437,540.951,538.478,0.0
49761.0,STARLINK-3203,PAYLOAD,2023-11-03 14:39:05,15.08855612,0.0001868,53.2183,26.6988,70.9299,289.1895,0.00097172,0.00015217,0.0,0 STARLINK-3203,1 49761U 21115AP  23307.61047982  .00015217  00000-0  97172-3 0  9994,2 49761  53.2183  26.6988 0001868  70.9299 289.1895 15.08855612106289,6917.833,95.437,540.99,538.405,0.0
49761.0,STARLINK-3203,PAYLOAD,2023-11-04 04:57:33,15.08846055,0.0002167,53.2174,24.0232,75.6161,284.5072,0.00042531,6.488e-05,0.0,0 STARLINK-3203,1 49761U 21115AP  23308.20664269  .00006488  00000-0  42531-3 0  9992,2 49761  53.2174  24.0232 0002167  75.6161 284.5072 15.08846055107486,6917.862,95.437,541.226,538.228,0.0
49761.0,STARLINK-3203,PAYLOAD,2023-11-04 11:19:06,15.08843685,0.0001886,53.2177,22.8335,76.293,283.8272,0.00031521,4.733e-05,0.0,0 STARLINK-3203,1 49761U 21115AP  23308.47160225  .00004733  00000-0  31521-3 0  9992,2 49761  53.2177  22.8335 0001886  76.2930 283.8272 15.08843685106419,6917.869,95.437,541.039,538.429,0.0
49761.0,STARLINK-3203,PAYLOAD,2023-11-04 22:26:48,15.08848002,0.000192,53.2176,20.7527,75.9298,284.1907,0.00059676,9.224e-05,0.0,0 STARLINK-3203,1 49761U 21115AP  23308.93528220  .00009224  00000-0  59676-3 0  9997,2 49761  53.2176  20.7527 0001920  75.9298 284.1907 15.08848002106484,6917.856,95.437,541.049,538.393,0.0
